[{"name":"LEMUR-1","line1":"1 40044U 14033AL  26177.65827844  .00001813  00000+0  21294-3 0  9993","line2":"2 40044  97.7884 327.2531 0049244  48.3449 312.1966 14.85278992646879"},{"name":"LEMUR-2-GREENBERG","line1":"1 42837U 17042N   26177.49592645  .00016326  00000+0  53655-3 0  9999","line2":"2 42837  97.3818 358.0794 0007652 338.7473  21.3450 15.31600683489811"},{"name":"LEMUR-2-ANDIS","line1":"1 42838U 17042P   26177.43850855  .00023594  00000+0  69092-3 0  9991","line2":"2 42838  97.3678 358.2388 0007477 336.5153  23.5748 15.35202027489877"},{"name":"LEMUR-2-MONSON","line1":"1 42839U 17042Q   26177.45947918  .00017793  00000+0  64775-3 0  9998","line2":"2 42839  97.4079 358.0012 0005479 329.4896  30.6024 15.28263966489586"},{"name":"LEMUR-2-FURIAUS","line1":"1 42840U 17042R   26177.49621440  .00017720  00000+0  60140-3 0  9995","line2":"2 42840  97.3768 356.0139 0007522  39.2212 320.9573 15.30543463489635"},{"name":"LEMUR-2-PETERG","line1":"1 42841U 17042S   26177.49364044  .00023055  00000+0  69615-3 0  9994","line2":"2 42841  97.3989   2.5410 0002727 312.9018  47.1996 15.34261175489866"},{"name":"LEMUR-2-DEMBITZ","line1":"1 42842U 17042T   26177.45051280  .00016778  00000+0  56954-3 0  9992","line2":"2 42842  97.3823 358.9996 0005932 355.3862   4.7324 15.30559376489762"},{"name":"LEMUR-2-ZACHARY","line1":"1 42845U 17042W   26177.48269242  .00042179  00000+0  72398-3 0  9991","line2":"2 42845  97.3591   9.3214 0002278 347.0942  13.0251 15.51052466490646"},{"name":"LEMUR-2-AMANDA-SVANTE","line1":"1 48269U 21034B   26177.48659640  .00032396  00000+0  95855-3 0  9991","line2":"2 48269  97.5763 256.0197 0003245 182.7185 177.4041 15.34834045282489"},{"name":"LEMUR-2-SPECIAL-K","line1":"1 48273U 21034F   26177.48035228  .00178753  00000+0  16348-2 0  9993","line2":"2 48273  97.5654 265.0279 0004963 223.9107 136.1759 15.67240927283142"},{"name":"LEMUR-2-EMBRIONOVIS","line1":"1 56970U 23084AQ  26177.37747805  .00014408  00000+0  39006-3 0  9995","line2":"2 56970  97.6293 321.9310 0007455 282.0427  77.9981 15.37769981169092"},{"name":"LEMUR-2-DEVERILL-M-T","line1":"1 57391U 23100F   26177.59144544  .00024855  00000+0  62016-3 0  9991","line2":"2 57391  99.4471 219.0675 0005419  17.3913 342.7512 15.40198630162699"},{"name":"LEMUR-2-BASS","line1":"1 58259U 23174D   26177.48258848  .00018535  00000+0  41613-3 0  9995","line2":"2 58259  97.3852 262.3258 0008086 133.8320 226.3598 15.43391689146796"},{"name":"LEMUR-2-JK0903EM1407","line1":"1 58336U 23174CJ  26177.49333002  .00028318  00000+0  46875-3 0  9993","line2":"2 58336  97.3932 268.2273 0005139  92.8133 267.3708 15.52141921147178"},{"name":"LEMUR-2-MJR092620","line1":"1 58340U 23174CN  26177.54984615  .00019970  00000+0  42165-3 0  9998","line2":"2 58340  97.3982 267.7528 0006882  90.2557 269.9481 15.45206009147091"},{"name":"LEMUR-2-NIMBUS2000","line1":"1 58899U 24022A   26177.56452112  .00020745  00000+0  51429-3 0  9999","line2":"2 58899  97.4104  27.6853 0010261  87.5376 272.7045 15.40360089133711"},{"name":"LEMUR-2-VALHALLA","line1":"1 58900U 24022B   26177.56294262  .00015785  00000+0  39740-3 0  9992","line2":"2 58900  97.4102  27.6688 0010765  83.6377 276.6094 15.39944276133716"},{"name":"LEMUR-2-CAEL","line1":"1 58903U 24022E   26177.56479100  .00016749  00000+0  40381-3 0  9995","line2":"2 58903  97.4085  28.6232 0008940  69.9227 290.2981 15.41265834133781"},{"name":"LEMUR-2-JOHNNYTRUONG","line1":"1 59146U 24043BA  26177.38232519  .00043273  00000+0  51226-3 0  9991","line2":"2 59146  97.5373 329.6593 0004862 148.7213 211.4334 15.61135676129476"},{"name":"LEMUR-2-TOMATOKECHUP","line1":"1 60471U 24149D   26177.48770762  .00011213  00000+0  31986-3 0  9999","line2":"2 60471  97.3804 259.5586 0002246 157.4796 202.6547 15.36216015103598"},{"name":"LEMUR-2-STELLA","line1":"1 60533U 24149BT  26177.47989328  .00010872  00000+0  63668-3 0  9999","line2":"2 60533  97.6743 259.9760 0001462  97.7350 262.4046 15.11994677101902"},{"name":"LEMUR-2-MARHISYAM","line1":"1 60536U 24149BW  26177.19879850  .00011386  00000+0  67705-3 0  9996","line2":"2 60536  97.6882 260.1519 0003274 102.0033 258.1564 15.11425100101846"},{"name":"LEMUR-2-AHMED-ASRAR","line1":"1 60576U 24149DN  26177.48878601  .00011926  00000+0  68046-3 0  9994","line2":"2 60576  97.7009 262.5723 0001011  23.3852 336.7424 15.12911302101973"},{"name":"LEMUR-2-LLOYD","line1":"1 60577U 24149DP  26177.19127139  .00011477  00000+0  72131-3 0  9997","line2":"2 60577  97.6746 258.3252 0005087 117.9672 242.2072 15.09400718101754"},{"name":"LEMUR-2-SQUIRRELCOMM","line1":"1 60578U 24149DQ  26177.48363434  .00006301  00000+0  42191-3 0  9993","line2":"2 60578  97.6718 258.3657 0005903  36.6450 323.5180 15.07252624101809"},{"name":"LEMUR-2-SIERRINI","line1":"1 60579U 24149DR  26177.48904400  .00011425  00000+0  68464-3 0  9992","line2":"2 60579  97.6847 260.1226 0006466 138.3856 221.7866 15.11133513101867"},{"name":"LEMUR-2-WILSON","line1":"1 62694U 25009CP  26177.53112846  .00001842  00000+0  17278-3 0  9998","line2":"2 62694  97.7027 255.8318 0003545  30.7514 329.3914 14.95202566 78758"},{"name":"LEMUR-2-STAR-FOX","line1":"1 62696U 25009CR  26177.48263976  .00005479  00000+0  41582-3 0  9990","line2":"2 62696  97.6954 259.0244 0004359  92.8194 267.3529 15.02613406 78952"},{"name":"LEMUR-2-ARIANNA","line1":"1 62699U 25009CU  26177.48108961  .00007819  00000+0  59132-3 0  9995","line2":"2 62699  97.6897 258.7900 0004743  97.1255 263.0510 15.02608252 78955"}]